COSMOS 2251 DEB
1 35831U 93036ATD 21061.69284660  .00001867  00000-0  50577-3 0  9991
2 35831  74.0119 193.1605 0039346 315.7164  44.0848 14.47946996347574
COSMOS 2251 DEB
1 35834U 93036ATG 21062.27084640 -.00000041  00000-0 -75439-5 0  9996
2 35834  73.9501 164.7464 0117963 322.8796  66.2039 14.11291452593470
COSMOS 2251 DEB
1 35835U 93036ATH 21060.98501190  .00000561  00000-0  42015-3 0  9994
2 35835  74.0656 302.8488 0314480 123.4360 239.7257 13.75578912376331
COSMOS 2251 DEB
1 35836U 93036ATJ 21060.67104469  .00000702  00000-0  21890-3 0  9994
2 35836  74.0412 218.2615 0044777 352.9415   7.1104 14.42122054622185
COSMOS 2251 DEB
1 35837U 93036ATK 21061.57734977  .00000962  00000-0  81980-3 0  9992
2 35837  73.7283 177.9969 0479761 343.2491  26.8939 13.45975884579626
COSMOS 2251 DEB
1 35839U 93036ATM 21061.48195782  .00000935  00000-0  20222-3 0  9991
2 35839  74.2394 101.7600 0030834  77.7479 348.2578 14.59344308627994
COSMOS 2251 DEB
1 35840U 93036ATN 21060.34580037  .00000870  00000-0  38072-3 0  9998
2 35840  73.9374  93.6611 0146355   8.4402 351.9150 14.19693256603866
COSMOS 2251 DEB
1 35841U 93036ATP 21060.89472688  .00003926  00000-0  34265-3 0  9996
2 35841  74.0422 115.1809 0107233 226.6779 132.5430 14.92832764379072
COSMOS 2251 DEB
1 35843U 93036ATR 21057.19378771  .00004607  00000-0  99933-3 0  9995
2 35843  74.0134 247.4735 0088762 320.5024  38.9690 14.55980324394814
IRIDIUM 33 DEB
1 35844U 97051SU  21061.35570166  .00022557  00000-0  12154-2 0  9995
2 35844  86.2742 289.7210 0005966 217.4744 142.6081 15.14676442623327
IRIDIUM 33 DEB
1 35846U 97051SW  21061.33982442  .00000329  00000-0  10793-3 0  9990
2 35846  86.3746  77.0820 0020224 140.2378 220.0305 14.35279812462311
IRIDIUM 33 DEB
1 35848U 97051SY  21059.24766931  .00000783  00000-0  19841-3 0  9999
2 35848  86.3981  55.8676 0017377  34.6274 325.6058 14.49575958412073
IRIDIUM 33 DEB
1 35850U 97051TA  21061.65575531  .00000749  00000-0  18699-3 0  9996
2 35850  86.3611  32.0530 0020438  16.8235 343.3643 14.50171653459000
IRIDIUM 33 DEB
1 35851U 97051TB  21062.48016232  .00007989  00000-0  14267-2 0  9996
2 35851  86.4116  76.1701 0070953 337.9910  21.8259 14.65183109626737
IRIDIUM 33 DEB
1 35853U 97051TD  21061.64174981  .00005080  00000-0  10789-2 0  9996
2 35853  86.3068  32.2947 0070874  54.0522 306.7233 14.57354734606186
IRIDIUM 33 DEB
1 35856U 97051TG  21062.33363556  .00008344  00000-0  11830-2 0  9998
2 35856  86.3671  16.7043 0079544  67.2258  83.7323 14.74695608614647
IRIDIUM 33 DEB
1 35857U 97051TH  21062.38222475  .00003195  00000-0  56246-3 0  9998
2 35857  86.4321  44.1369 0055992 186.0824 173.9717 14.66249778623752
IRIDIUM 33 DEB
1 35858U 97051TJ  21061.23893227  .00001973  00000-0  38542-3 0  9992
2 35858  86.3599  45.6361 0025935 160.6778 199.5423 14.62220070431279
IRIDIUM 33 DEB
1 35862U 97051TN  21062.31684916  .00009814  00000-0  12264-2 0  9994
2 35862  86.3754   7.0193 0031178  38.5745 113.4879 14.81890669619990
IRIDIUM 33 DEB
1 35863U 97051TP  21061.70809125  .00002368  00000-0  56939-3 0  9993
2 35863  86.3433  62.2971 0098172 164.1491 196.2826 14.50005206609433
METEOR-M
1 35865U 09049A   21062.19861927  .00000008  00000-0  22607-4 0  9992
2 35865  98.4687  44.6011 0002910 136.2431 223.8979 14.22265800594692
STERKH 2
1 35866U 09049B   21061.93137554  .00000018  00000-0  26418-4 0  9991
2 35866  98.4475  45.7126 0004034 127.1646 232.9901 14.23003724594763
FREGAT/IRIS
1 35867U 09049C   21062.55563278  .00600258  21092-5  35790-3 0  9990
2 35867  96.8603 111.5394 0002964 209.1148 151.0828 16.18527762647268
TATIANA 2
1 35868U 09049D   21061.81045384  .00000017  00000-0  26106-4 0  9992
2 35868  98.4530  45.4783 0005009 123.7414 236.4243 14.22911166594788
UGATUSAT
1 35869U 09049E   21062.44782013 -.00000011  00000-0  14004-4 0  9999
2 35869  98.4669  43.8793 0005158 139.6546 220.5016 14.22451138594827
SUMBANDILA
1 35870U 09049F   21062.50202206  .00024008  00000-0  16684-3 0  9995
2 35870  96.9965  96.2386 0002789  72.9716  65.3564 15.74406516644777
BLITS
1 35871U 09049G   21062.43058204 -.00000022  00000-0  91371-5 0  9994
2 35871  98.4873  41.5767 0003989 144.1871 215.9575 14.21813131593983
NIMIQ 5
1 35873U 09050A   21061.84354994 -.00000265  00000-0  00000-0 0  9990
2 35873   0.0540 285.5445 0002577  73.0979  33.1640  1.00271566 41972
BREEZE-M R/B
1 35874U 09050B   21062.08243595 -.00000119  00000-0  00000+0 0  9999
2 35874  11.4076 203.9708 4782259 147.0580 210.3189  1.93078400 80137
BREEZE-M DEB (TANK)
1 35875U 09050C   21061.76109349  .00002239  00000-0  79633-3 0  9998
2 35875  49.3126 222.4233 5992416 118.6245 313.6249  4.02022307165444
COSMOS 2251 DEB
1 35881U 93036ATU 21061.21039131  .00001601  00000-0  58643-3 0  9993
2 35881  74.2037 139.5859 0057152  87.1385 273.6306 14.32720111621910
COSMOS 2251 DEB
1 35883U 93036ATW 21060.87159689  .00000172  00000-0  54085-4 0  9996
2 35883  74.0236  99.7824 0091880 296.2414 238.6939 14.45784974371109
COSMOS 2251 DEB
1 35885U 93036ATY 21061.88194020  .00000144  00000-0  61069-4 0  9997
2 35885  74.0272 256.7850 0024758  41.4516 318.8508 14.33809226614195
COSMOS 2251 DEB
1 35887U 93036AUA 21061.41772505  .00000839  00000-0  36476-3 0  9992
2 35887  73.9884  89.7516 0120003 280.0428  78.7194 14.21895817395670
COSMOS 2251 DEB
1 35888U 93036AUB 21061.65771110  .00000224  00000-0  63534-4 0  9994
2 35888  74.0343  52.8267 0058915 260.5706  98.8792 14.50445157609104
COSMOS 2251 DEB
1 35890U 93036AUD 21059.27737168  .00000791  00000-0  27924-3 0  9998
2 35890  73.9433 262.5606 0079118  54.1019 306.7442 14.34608689399498
COSMOS 2251 DEB
1 35891U 93036AUE 21061.62272896  .00000704  00000-0  81620-4 0  9991
2 35891  74.0026  27.2561 0126598 242.2465 116.5829 14.82196536621608
COSMOS 2251 DEB
1 35893U 93036AUG 21060.55299087  .00001567  00000-0  41659-3 0  9990
2 35893  73.6538 359.0683 0066818 100.2519 260.6182 14.48200881605320
COSMOS 2251 DEB
1 35895U 93036AUJ 21060.53356376  .00000268  00000-0  18576-3 0  9994
2 35895  74.0512 107.9174 0229838 251.4627 106.1409 13.91821703583821
COSMOS 2251 DEB
1 35897U 93036AUL 21061.44391235  .00002183  00000-0  12478-3 0  9993
2 35897  73.9589 129.4607 0097900  24.2848 336.2910 15.09431227631241
COSMOS 2251 DEB
1 35898U 93036AUM 21062.48381406  .00000503  00000-0  77484-4 0  9991
2 35898  74.0007 138.9437 0121020 358.7042  12.5130 14.71720061623151
COSMOS 2251 DEB
1 35900U 93036AUP 21061.94493478  .00001701  00000-0  46158-3 0  9992
2 35900  74.0282 170.2615 0030791 301.0031  58.8104 14.48108028622408
COSMOS 2251 DEB
1 35901U 93036AUQ 21060.95734031  .00000972  00000-0  26137-3 0  9990
2 35901  74.0342 136.0794 0019108 283.6087 250.0938 14.49285064605756
COSMOS 2251 DEB
1 35902U 93036AUR 21062.46731694  .00000564  00000-0  27387-3 0  9996
2 35902  73.9870 128.1881 0123743 275.1695  83.5335 14.16775014603236
COSMOS 2251 DEB
1 35903U 93036AUS 21061.88197002  .00001082  00000-0  14198-3 0  9993
2 35903  74.0615 131.1191 0100322 274.2423  84.7293 14.78271024413359
COSMOS 2251 DEB
1 35904U 93036AUT 21060.56524875  .00001095  00000-0  23780-3 0  9991
2 35904  74.0262  15.0385 0030092 225.0797 134.7927 14.59071465610385
COSMOS 2251 DEB
1 35905U 93036AUU 21060.40047456  .00000426  00000-0  56411-4 0  9995
2 35905  74.0365  78.9297 0132483 260.0623  98.5577 14.77789067626518
COSMOS 2251 DEB
1 35906U 93036AUV 21061.74568380  .00002918  00000-0  37779-3 0  9991
2 35906  74.0216 201.0856 0111451 141.5476 286.0848 14.77039469620529
IRIDIUM 33 DEB
1 35911U 97051TU  21062.19948004  .00001602  00000-0  58206-3 0  9990
2 35911  86.2366  41.1878 0093600  82.3633 278.8178 14.30247915618231
IRIDIUM 33 DEB
1 35915U 97051TY  21059.19178701  .00000714  00000-0  17974-3 0  9999
2 35915  86.3567  32.8795 0024866  22.2930 337.9349 14.49638569388965
IRIDIUM 33 DEB
1 35917U 97051UA  21060.64199737  .00001904  00000-0  34348-3 0  9991
2 35917  86.3918  29.1672 0019063 170.6771 189.4800 14.65878267611931
IRIDIUM 33 DEB
1 35918U 97051UB  21062.40070812  .00000645  00000-0  21151-3 0  9999
2 35918  86.4032  92.2267 0031692 168.7664 257.0751 14.36591089603189
IRIDIUM 33 DEB
1 35921U 97051UE  21061.53422227  .00004405  00000-0  16743-2 0  9995
2 35921  86.4222 160.0107 0145152 265.7961  92.6630 14.25179851401908
IRIDIUM 33 DEB
1 35922U 97051UF  21058.23009979  .00001541  00000-0  34722-3 0  9990
2 35922  86.3899  47.0390 0028202 311.2575  48.6204 14.55553316397019
IRIDIUM 33 DEB
1 35925U 97051UJ  21062.20145331  .00008556  00000-0  10183-2 0  9995
2 35925  86.3120 337.8302 0009826 301.0936  58.9323 14.84226306628472
IRIDIUM 33 DEB
1 35926U 97051UK  21062.29728392  .00002367  00000-0  46356-3 0  9995
2 35926  86.3495   9.9898 0003972 279.0096  81.0666 14.62426897617290
IRIDIUM 33 DEB
1 35929U 97051UN  21061.60105560  .00000780  00000-0  17300-3 0  9992
2 35929  86.3544  13.9041 0028563 282.0317  77.7690 14.55610870622301
OCEANSAT 2
1 35931U 09051A   21062.54982911  .00000117  00000-0  40924-4 0  9998
2 35931  98.2924 160.1018 0001658  27.7485 332.3800 14.50841231605983
SWISSCUBE
1 35932U 09051B   21061.73731972  .00000154  00000-0  45683-4 0  9996
2 35932  98.6078 258.3572 0008513  59.8189 300.3850 14.56494535607425
BEESAT
1 35933U 09051C   21062.05081064  .00000137  00000-0  41874-4 0  9992
2 35933  98.6052 260.5289 0006840  71.3317 288.8622 14.56557765607625
UWE-2
1 35934U 09051D   21062.49330210  .00000105  00000-0  34972-4 0  9997
2 35934  98.6128 256.6585 0007571  74.8772 285.3262 14.56009661607562
ITUPSAT 1
1 35935U 09051E   21062.47290955  .00000115  00000-0  37605-4 0  9994
2 35935  98.6157 261.1231 0009135  69.5920 290.6257 14.55694288607385
RUBIN 9.1/RUBIN 9.2/PSLV
1 35936U 09051F   21062.44250810  .00000021  00000-0  18642-4 0  9994
2 35936  98.1360  24.3405 0055466 149.9493 210.4900 14.41890063602064
